{"type": "FeatureCollection", "features": [{"type": "Feature", "properties": {"norad_id": 50032, "name": "COSMOS 1408 DEB", "group": "cosmos-1408-debris", "lat": -8.65924164109979, "lon": -112.0696270166717, "alt_km": 427.6625014606743, "timestamp": "2025-12-04T15:47:54.368352+00:00", "meta": {"OBJECT_NAME": "COSMOS 1408 DEB", "OBJECT_ID": "1982-092RU", "EPOCH": "2025-12-04T07:12:52.092288", "MEAN_MOTION": 15.45562169, "ECCENTRICITY": 0.00147165, "INCLINATION": 82.5658, "RA_OF_ASC_NODE": 67.1573, "ARG_OF_PERICENTER": 241.6021, "MEAN_ANOMALY": 118.3745, "EPHEMERIS_TYPE": 0, "CLASSIFICATION_TYPE": "U", "NORAD_CAT_ID": 50032, "ELEMENT_SET_NO": 999, "REV_AT_EPOCH": 22473, "BSTAR": 0.00021483539, "MEAN_MOTION_DOT": 0.00010403, "MEAN_MOTION_DDOT": 0}, "tle": {"line1": "1 50032U 82092RU  25338.30060292  .00010403  00000+0  21484-3 0  9993", "line2": "2 50032  82.5658  67.1573 0014716 241.6021 118.3745 15.45562169224731"}}, "geometry": {"type": "Point", "coordinates": [-112.0696270166717, -8.65924164109979]}}, {"type": "Feature", "properties": {"norad_id": 50058, "name": "COSMOS 1408 DEB", "group": "cosmos-1408-debris", "lat": -44.27421440075322, "lon": -94.93904541721005, "alt_km": 386.0025078283006, "timestamp": "2025-12-04T15:47:54.368373+00:00", "meta": {"OBJECT_NAME": "COSMOS 1408 DEB", "OBJECT_ID": "1982-092SW", "EPOCH": "2025-12-04T07:09:39.475584", "MEAN_MOTION": 15.63350029, "ECCENTRICITY": 0.00162609, "INCLINATION": 82.6139, "RA_OF_ASC_NODE": 78.171, "ARG_OF_PERICENTER": 128.8171, "MEAN_ANOMALY": 231.4543, "EPHEMERIS_TYPE": 0, "CLASSIFICATION_TYPE": "U", "NORAD_CAT_ID": 50058, "ELEMENT_SET_NO": 999, "REV_AT_EPOCH": 22672, "BSTAR": 0.00063988706, "MEAN_MOTION_DOT": 0.00059517, "MEAN_MOTION_DDOT": 0}, "tle": {"line1": "1 50058U 82092SW  25338.29837356  .00059517  00000+0  63989-3 0  9997", "line2": "2 50058  82.6139  78.1710 0016260 128.8171 231.4543 15.63350029226721"}}, "geometry": {"type": "Point", "coordinates": [-94.93904541721005, -44.27421440075322]}}, {"type": "Feature", "properties": {"norad_id": 50404, "name": "COSMOS 1408 DEB", "group": "cosmos-1408-debris", "lat": 10.923843653418064, "lon": -135.18936947973526, "alt_km": 629.069925599626, "timestamp": "2025-12-04T15:47:54.368415+00:00", "meta": {"OBJECT_NAME": "COSMOS 1408 DEB", "OBJECT_ID": "1982-092ADS", "EPOCH": "2025-12-04T03:02:32.219520", "MEAN_MOTION": 15.11972911, "ECCENTRICITY": 0.01759389, "INCLINATION": 82.207, "RA_OF_ASC_NODE": 223.8385, "ARG_OF_PERICENTER": 228.6918, "MEAN_ANOMALY": 129.9057, "EPHEMERIS_TYPE": 0, "CLASSIFICATION_TYPE": "U", "NORAD_CAT_ID": 50404, "ELEMENT_SET_NO": 999, "REV_AT_EPOCH": 21063, "BSTAR": 0.0052613218, "MEAN_MOTION_DOT": 0.00133611, "MEAN_MOTION_DDOT": 0}, "tle": {"line1": "1 50404U 82092ADS 25338.12676180  .00133611  00000+0  52613-2 0  9999", "line2": "2 50404  82.2070 223.8385 0175938 228.6918 129.9057 15.11972911210636"}}, "geometry": {"type": "Point", "coordinates": [-135.18936947973526, 10.923843653418064]}}, {"type": "Feature", "properties": {"norad_id": 50621, "name": "COSMOS 1408 DEB", "group": "cosmos-1408-debris", "lat": 80.86074453828667, "lon": -151.6180168525458, "alt_km": 390.5791354181256, "timestamp": "2025-12-04T15:47:54.368436+00:00", "meta": {"OBJECT_NAME": "COSMOS 1408 DEB", "OBJECT_ID": "1982-092ALR", "EPOCH": "2025-12-04T07:40:18.152256", "MEAN_MOTION": 15.55994248, "ECCENTRICITY": 0.00288655, "INCLINATION": 82.5706, "RA_OF_ASC_NODE": 82.9412, "ARG_OF_PERICENTER": 183.2784, "MEAN_ANOMALY": 176.8286, "EPHEMERIS_TYPE": 0, "CLASSIFICATION_TYPE": "U", "NORAD_CAT_ID": 50621, "ELEMENT_SET_NO": 999, "REV_AT_EPOCH": 22119, "BSTAR": 0.0007370431, "MEAN_MOTION_DOT": 0.00052478, "MEAN_MOTION_DDOT": 0}, "tle": {"line1": "1 50621U 82092ALR 25338.31965454  .00052478  00000+0  73704-3 0  9992", "line2": "2 50621  82.5706  82.9412 0028865 183.2784 176.8286 15.55994248221197"}}, "geometry": {"type": "Point", "coordinates": [-151.6180168525458, 80.86074453828667]}}]}